BEIDOU-2 G3             
1 36590U 10024A   26188.08956389 -.00000123  00000+0  00000+0 0  9998
2 36590   4.5599  61.4257 0007631 359.1395 336.3828  1.00270091 58965
BADR-5                  
1 36592U 10025A   26188.50748435  .00000169  00000+0  00000+0 0  9998
2 36592   0.0608 110.8355 0004825  81.3656 306.4193  1.00271871 53429
COMS 1                  
1 36744U 10032A   26188.00140631 -.00000175  00000+0  00000+0 0  9992
2 36744   4.8529  75.1185 0011441  14.6993 190.2555  0.99169409 51284
ARABSAT-5A              
1 36745U 10032B   26188.50757102  .00000169  00000+0  00000+0 0  9997
2 36745   0.0939  62.4045 0005589  54.4580  21.8138  1.00270418 58854
ECHOSTAR 15             
1 36792U 10034A   26188.47799411  .00000015  00000+0  00000+0 0  9996
2 36792   0.0217 305.4077 0002200 136.0104 257.2932  1.00270496 58523
BEIDOU-2 IGSO-1         
1 36828U 10036A   26187.82437029 -.00000061  00000+0  00000+0 0  9992
2 36828  54.3063 162.7828 0059267 225.2322 300.9018  1.00266641 58292
NILESAT 201             
1 36830U 10037A   26188.35753382 -.00000042  00000+0  00000+0 0  9997
2 36830   0.0101 123.6826 0005459   9.5863 273.7788  1.00271802 58574
RASCOM-QAF 1R           
1 36831U 10037B   26188.35944050  .00000034  00000+0  00000+0 0  9992
2 36831   0.0158  65.1026 0006472  32.7498 319.7505  1.00271628 58504
AEHF-1 (USA 214)        
1 36868U 10039A   26188.29351582  .00000157  00000+0  00000+0 0  9995
2 36868   8.2672  67.7814 0003870  34.7543 318.3202  1.00271046 53856
XM-5                    
1 37185U 10053A   26188.47868743 -.00000008  00000+0  00000+0 0  9992
2 37185   0.0646 268.2720 0001745 309.3889 124.9177  1.00270830 57684
BSAT-3B                 
1 37207U 10056B   26187.63387416 -.00000335  00000+0  00000+0 0  9993
2 37207   0.0530 225.4860 0002443 316.5972  80.5648  1.00270945 52299
BEIDOU-2 G4             
1 37210U 10057A   26188.48671175 -.00000100  00000+0  00000+0 0  9990
2 37210   3.6939  68.8240 0005158 186.0298   5.7787  1.00270786 57496
SKYTERRA 1              
1 37218U 10061A   26188.44939692 -.00000106  00000+0  00000+0 0  9996
2 37218   5.1654  50.8144 0002321  33.3938 261.6626  1.00271099 57395
HYLAS 1                 
1 37237U 10065A   26181.30407082  .00000096  00000+0  00000+0 0  9999
2 37237   5.6751  72.8623 0001043 340.0885 348.6881  1.00272596  7010
INTELSAT 17 (IS-17)     
1 37238U 10065B   26188.51459104  .00000014  00000+0  00000+0 0  9992
2 37238   0.0087  75.3621 0002601  36.1644  65.1949  1.00272576 53458
BEIDOU-2 IGSO-2         
1 37256U 10068A   26187.66740300 -.00000202  00000+0  00000+0 0  9991
2 37256  47.5121 271.5911 0056612 213.5272 148.0884  1.00276802 56991
EUTELSAT KA-SAT 9A      
1 37258U 10069A   26188.36065382  .00000076  00000+0  00000+0 0  9990
2 37258   0.0607  13.2155 0004044 124.5140 286.4150  1.00269908 44207
HISPASAT 30W-5          
1 37264U 10070A   26187.64011215 -.00000201  00000+0  00000+0 0  9996
2 37264   0.0463 104.5765 0005724  13.8936   6.5809  1.00270016 53387
KOREASAT 6              
1 37265U 10070B   26187.82028976 -.00000096  00000+0  00000+0 0  9991
2 37265   0.0214 286.4075 0002578 192.8477 260.7411  1.00272355 56966
BEIDOU-2 IGSO-3         
1 37384U 11013A   26187.52460699 -.00000170  00000+0  00000+0 0  9993
2 37384  62.4337  39.9702 0035245 183.2519 357.0849  1.00262965 55850
INTELSAT 28 (IS-28)     
1 37392U 11016A   26187.71099740 -.00000211  00000+0  00000+0 0  9997
2 37392   1.8534  82.3902 0003753  27.7420  38.7679  1.00270512 53489
YAHSAT 1A               
1 37393U 11016B   26188.51190436  .00000000  00000+0  00000+0 0  9996
2 37393   0.0227  45.9626 0002909  65.3478  50.9492  1.00270508 42618
SBIRS GEO-1 (USA 230)   
1 37481U 11019A   26188.22660479  .00000112  00000+0  00000+0 0  9998
2 37481   4.5796  53.1110 0001965  44.8112 320.6457  1.00272178 55609
TELSTAR 14R             
1 37602U 11021A   26188.32276013 -.00000265  00000+0  00000+0 0  9994
2 37602   0.0656  84.2630 0001936 356.2325 257.9954  1.00270462 56032
GSAT-8                  
1 37605U 11022A   26188.51242436  .00000099  00000+0  00000+0 0  9995
2 37605   2.1803  81.5806 0002449 166.7729 276.6749  1.00270850 53420
ST-2                    
1 37606U 11022B   26187.81428456 -.00000196  00000+0  00000+0 0  9995
2 37606   0.0212  80.9853 0001637  44.8324 180.1328  1.00270340 55475
ZHONGXING-10            
1 37677U 11026A   26188.44717679 -.00000174  00000+0  00000+0 0  9991
2 37677   1.0962  83.9885 0003640  17.0606  70.8723  1.00270459 55201
SES-3                   
1 37748U 11035A   26188.56106972 -.00000087  00000+0  00000+0 0  9994
2 37748   1.3762  82.8720 0002097  20.3006 281.3491  1.00271495 54798
KAZSAT-2                
1 37749U 11035B   26188.37608057 -.00000182  00000+0  00000+0 0  9991
2 37749   0.0280 144.6674 0001928  20.6064 341.9759  1.00270993 53605
BEIDOU-2 IGSO-4         
1 37763U 11038A   26187.84005391  .00000048  00000+0  00000+0 0  9993
2 37763  54.6039 165.4986 0160070 231.4311 284.4062  1.00281732 54844
ASTRA 1N                
1 37775U 11041A   26188.50529425  .00000135  00000+0  00000+0 0  9990
2 37775   0.0685  26.7180 0005789  83.1691  16.7138  1.00274564 44734
BSAT-3C (JCSAT-110R)    
1 37776U 11041B   26188.52325485 -.00000335  00000+0  00000+0 0  9996
2 37776   0.0178 340.1378 0000093 258.2225 345.4652  1.00270708 50674
