OBJECT_NAME,OBJECT_ID,EPOCH,MEAN_MOTION,ECCENTRICITY,INCLINATION,RA_OF_ASC_NODE,ARG_OF_PERICENTER,MEAN_ANOMALY,EPHEMERIS_TYPE,CLASSIFICATION_TYPE,NORAD_CAT_ID,ELEMENT_SET_NO,REV_AT_EPOCH,BSTAR,MEAN_MOTION_DOT,MEAN_MOTION_DDOT
BEIDOU-2 G3,2010-024A,2026-07-07T02:08:58.320096,1.00270091,.0007631,4.5599,61.4257,359.1395,336.3828,0,U,36590,999,5896,0,-.123E-5,0
BADR-5,2010-025A,2026-07-07T12:10:46.647840,1.00271871,.0004825,0.0608,110.8355,81.3656,306.4193,0,U,36592,999,5342,0,.169E-5,0
COMS 1,2010-032A,2026-07-07T00:02:01.505184,0.99169409,.0011441,4.8529,75.1185,14.6993,190.2555,0,U,36744,999,5128,0,-.175E-5,0
ARABSAT-5A,2010-032B,2026-07-07T12:10:54.136128,1.00270418,.0005589,0.0939,62.4045,54.4580,21.8138,0,U,36745,999,5885,0,.169E-5,0
ECHOSTAR 15,2010-034A,2026-07-07T11:28:18.691104,1.00270496,.00022,0.0217,305.4077,136.0104,257.2932,0,U,36792,999,5852,0,.15E-6,0
BEIDOU-2 IGSO-1,2010-036A,2026-07-06T19:47:05.593056,1.00266641,.0059267,54.3063,162.7828,225.2322,300.9018,0,U,36828,999,5829,0,-.61E-6,0
NILESAT 201,2010-037A,2026-07-07T08:34:50.922048,1.00271802,.0005459,0.0101,123.6826,9.5863,273.7788,0,U,36830,999,5857,0,-.42E-6,0
RASCOM-QAF 1R,2010-037B,2026-07-07T08:37:35.659200,1.00271628,.0006472,0.0158,65.1026,32.7498,319.7505,0,U,36831,999,5850,0,.34E-6,0
AEHF-1 (USA 214),2010-039A,2026-07-07T07:02:39.766848,1.00271046,.000387,8.2672,67.7814,34.7543,318.3202,0,U,36868,999,5385,0,.157E-5,0
XM-5,2010-053A,2026-07-07T11:29:18.593952,1.00270830,.0001745,0.0646,268.2720,309.3889,124.9177,0,U,37185,999,5768,0,-.8E-7,0
BSAT-3B,2010-056B,2026-07-06T15:12:46.727424,1.00270945,.0002443,0.0530,225.4860,316.5972,80.5648,0,U,37207,999,5229,0,-.335E-5,0
BEIDOU-2 G4,2010-057A,2026-07-07T11:40:51.895200,1.00270786,.0005158,3.6939,68.8240,186.0298,5.7787,0,U,37210,999,5749,0,-.1E-5,0
SKYTERRA 1,2010-061A,2026-07-07T10:47:07.893888,1.00271099,.0002321,5.1654,50.8144,33.3938,261.6626,0,U,37218,999,5739,0,-.106E-5,0
HYLAS 1,2010-065A,2026-06-30T07:17:51.718848,1.00272596,.00010436,5.6751,72.8623,340.0885,348.6881,0,U,37237,999,701,0,.96E-6,0
INTELSAT 17 (IS-17),2010-065B,2026-07-07T12:21:00.665856,1.00272576,.0002601,0.0087,75.3621,36.1644,65.1949,0,U,37238,999,5345,0,.14E-6,0
BEIDOU-2 IGSO-2,2010-068A,2026-07-06T16:01:03.619200,1.00276802,.0056612,47.5121,271.5911,213.5272,148.0884,0,U,37256,999,5699,0,-.202E-5,0
EUTELSAT KA-SAT 9A,2010-069A,2026-07-07T08:39:20.490048,1.00269908,.0004044,0.0607,13.2155,124.5140,286.4150,0,U,37258,999,4420,0,.76E-6,0
HISPASAT 30W-5,2010-070A,2026-07-06T15:21:45.689760,1.00270016,.0005724,0.0463,104.5765,13.8936,6.5809,0,U,37264,999,5338,0,-.201E-5,0
KOREASAT 6,2010-070B,2026-07-06T19:41:13.035264,1.00272355,.0002578,0.0214,286.4075,192.8477,260.7411,0,U,37265,999,5696,0,-.96E-6,0
BEIDOU-2 IGSO-3,2011-013A,2026-07-06T12:35:26.043936,1.00262965,.0035245,62.4337,39.9702,183.2519,357.0849,0,U,37384,999,5585,0,-.17E-5,0
INTELSAT 28 (IS-28),2011-016A,2026-07-06T17:03:50.175360,1.00270512,.0003753,1.8534,82.3902,27.7420,38.7679,0,U,37392,999,5348,0,-.211E-5,0
YAHSAT 1A,2011-016B,2026-07-07T12:17:08.536704,1.00270508,.0002909,0.0227,45.9626,65.3478,50.9492,0,U,37393,999,4261,0,0,0
SBIRS GEO-1 (USA 230),2011-019A,2026-07-07T05:26:18.653856,1.00272178,.0001965,4.5796,53.1110,44.8112,320.6457,0,U,37481,999,5560,0,.112E-5,0
TELSTAR 14R,2011-021A,2026-07-07T07:44:46.475232,1.00270462,.0001936,0.0656,84.2630,356.2325,257.9954,0,U,37602,999,5603,0,-.265E-5,0
GSAT-8,2011-022A,2026-07-07T12:17:53.464704,1.00270850,.0002449,2.1803,81.5806,166.7729,276.6749,0,U,37605,999,5342,0,.99E-6,0
ST-2,2011-022B,2026-07-06T19:32:34.185984,1.00270340,.0001637,0.0212,80.9853,44.8324,180.1328,0,U,37606,999,5547,0,-.196E-5,0
ZHONGXING-10,2011-026A,2026-07-07T10:43:56.074656,1.00270459,.000364,1.0962,83.9885,17.0606,70.8723,0,U,37677,999,5520,0,-.174E-5,0
SES-3,2011-035A,2026-07-07T13:27:56.423808,1.00271495,.0002097,1.3762,82.8720,20.3006,281.3491,0,U,37748,999,5479,0,-.87E-6,0
KAZSAT-2,2011-035B,2026-07-07T09:01:33.361248,1.00270993,.0001928,0.0280,144.6674,20.6064,341.9759,0,U,37749,999,5360,0,-.182E-5,0
BEIDOU-2 IGSO-4,2011-038A,2026-07-06T20:09:40.657824,1.00281732,.016007,54.6039,165.4986,231.4311,284.4062,0,U,37763,999,5484,0,.48E-6,0
ASTRA 1N,2011-041A,2026-07-07T12:07:37.423200,1.00274564,.0005789,0.0685,26.7180,83.1691,16.7138,0,U,37775,999,4473,0,.135E-5,0
BSAT-3C (JCSAT-110R),2011-041B,2026-07-07T12:33:29.219040,1.00270708,.0000093,0.0178,340.1378,258.2225,345.4652,0,U,37776,999,5067,0,-.335E-5,0
